CCSDS_OMM_VERS = 2.0
CREATION_DATE  = 
ORIGINATOR     = 

OBJECT_NAME    = STARLINK-36879
OBJECT_ID      = 2026-038X
CENTER_NAME    = EARTH
REF_FRAME      = TEME
TIME_SYSTEM    = UTC
MEAN_ELEMENT_THEORY = SGP/SGP4

EPOCH          = 2026-03-05T20:00:00.999360
MEAN_MOTION    = 16.02432099
ECCENTRICITY   = .0001204
INCLINATION    = 97.2726
RA_OF_ASC_NODE = 74.8329
ARG_OF_PERICENTER = 67.9475
MEAN_ANOMALY   = 230.0475

EPHEMERIS_TYPE = 0
CLASSIFICATION_TYPE = U
NORAD_CAT_ID   = 67982
ELEMENT_SET_NO = 999
REV_AT_EPOCH   = 257
BSTAR          = -.2521E-2
MEAN_MOTION_DOT = -.1458696E-1
MEAN_MOTION_DDOT = .67787E-3

CCSDS_OMM_VERS = 2.0
CREATION_DATE  = 
ORIGINATOR     = 

OBJECT_NAME    = STARLINK-36867
OBJECT_ID      = 2026-038Y
CENTER_NAME    = EARTH
REF_FRAME      = TEME
TIME_SYSTEM    = UTC
MEAN_ELEMENT_THEORY = SGP/SGP4

EPOCH          = 2026-03-05T20:00:00.999360
MEAN_MOTION    = 16.02706300
ECCENTRICITY   = .0001253
INCLINATION    = 97.2724
RA_OF_ASC_NODE = 74.8355
ARG_OF_PERICENTER = 64.6081
MEAN_ANOMALY   = 238.9468

EPHEMERIS_TYPE = 0
CLASSIFICATION_TYPE = U
NORAD_CAT_ID   = 67983
ELEMENT_SET_NO = 999
REV_AT_EPOCH   = 257
BSTAR          = -.24769E-2
MEAN_MOTION_DOT = -.1456325E-1
MEAN_MOTION_DDOT = .67799E-3

CCSDS_OMM_VERS = 2.0
CREATION_DATE  = 
ORIGINATOR     = 

OBJECT_NAME    = STARLINK-36266
OBJECT_ID      = 2026-038Z
CENTER_NAME    = EARTH
REF_FRAME      = TEME
TIME_SYSTEM    = UTC
MEAN_ELEMENT_THEORY = SGP/SGP4

EPOCH          = 2026-03-05T20:00:00.999360
MEAN_MOTION    = 16.02582418
ECCENTRICITY   = .0001256
INCLINATION    = 97.2724
RA_OF_ASC_NODE = 74.8344
ARG_OF_PERICENTER = 64.6923
MEAN_ANOMALY   = 236.3504

EPHEMERIS_TYPE = 0
CLASSIFICATION_TYPE = U
NORAD_CAT_ID   = 67984
ELEMENT_SET_NO = 999
REV_AT_EPOCH   = 254
BSTAR          = -.24927E-2
MEAN_MOTION_DOT = -.145504E-1
MEAN_MOTION_DDOT = .6759E-3

CCSDS_OMM_VERS = 2.0
CREATION_DATE  = 
ORIGINATOR     = 

OBJECT_NAME    = STARLINK-36802
OBJECT_ID      = 2026-038AA
CENTER_NAME    = EARTH
REF_FRAME      = TEME
TIME_SYSTEM    = UTC
MEAN_ELEMENT_THEORY = SGP/SGP4

EPOCH          = 2026-03-05T20:00:00.999360
MEAN_MOTION    = 16.02827578
ECCENTRICITY   = .0001112
INCLINATION    = 97.2721
RA_OF_ASC_NODE = 74.8361
ARG_OF_PERICENTER = 89.9319
MEAN_ANOMALY   = 215.9203

EPHEMERIS_TYPE = 0
CLASSIFICATION_TYPE = U
NORAD_CAT_ID   = 67985
ELEMENT_SET_NO = 999
REV_AT_EPOCH   = 257
BSTAR          = -.24794E-2
MEAN_MOTION_DOT = -.1468006E-1
MEAN_MOTION_DDOT = .6891E-3

CCSDS_OMM_VERS = 2.0
CREATION_DATE  = 
ORIGINATOR     = 

OBJECT_NAME    = STARLINK-36535
OBJECT_ID      = 2026-039A
CENTER_NAME    = EARTH
REF_FRAME      = TEME
TIME_SYSTEM    = UTC
MEAN_ELEMENT_THEORY = SGP/SGP4

EPOCH          = 2026-03-05T20:00:00.999360
MEAN_MOTION    = 15.95571673
ECCENTRICITY   = .0001717
INCLINATION    = 42.9981
RA_OF_ASC_NODE = 78.8401
ARG_OF_PERICENTER = 262.4362
MEAN_ANOMALY   = 5.8886

EPHEMERIS_TYPE = 0
CLASSIFICATION_TYPE = U
NORAD_CAT_ID   = 67986
ELEMENT_SET_NO = 999
REV_AT_EPOCH   = 225
BSTAR          = -.36955E-2
MEAN_MOTION_DOT = -.153166E-1
MEAN_MOTION_DDOT = .68312E-3

CCSDS_OMM_VERS = 2.0
CREATION_DATE  = 
ORIGINATOR     = 

OBJECT_NAME    = STARLINK-36744
OBJECT_ID      = 2026-039B
CENTER_NAME    = EARTH
REF_FRAME      = TEME
TIME_SYSTEM    = UTC
MEAN_ELEMENT_THEORY = SGP/SGP4

EPOCH          = 2026-03-05T20:00:00.999360
MEAN_MOTION    = 15.95688793
ECCENTRICITY   = .0001759
INCLINATION    = 42.9981
RA_OF_ASC_NODE = 78.8358
ARG_OF_PERICENTER = 261.0505
MEAN_ANOMALY   = 8.9003

EPHEMERIS_TYPE = 0
CLASSIFICATION_TYPE = U
NORAD_CAT_ID   = 67987
ELEMENT_SET_NO = 999
REV_AT_EPOCH   = 225
BSTAR          = -.36118E-2
MEAN_MOTION_DOT = -.1506852E-1
MEAN_MOTION_DDOT = .66371E-3

CCSDS_OMM_VERS = 2.0
CREATION_DATE  = 
ORIGINATOR     = 

OBJECT_NAME    = STARLINK-36734
OBJECT_ID      = 2026-039C
CENTER_NAME    = EARTH
REF_FRAME      = TEME
TIME_SYSTEM    = UTC
MEAN_ELEMENT_THEORY = SGP/SGP4

EPOCH          = 2026-03-05T20:00:00.999360
MEAN_MOTION    = 15.95846287
ECCENTRICITY   = .0001816
INCLINATION    = 42.9982
RA_OF_ASC_NODE = 78.8307
ARG_OF_PERICENTER = 261.8980
MEAN_ANOMALY   = 10.0301

EPHEMERIS_TYPE = 0
CLASSIFICATION_TYPE = U
NORAD_CAT_ID   = 67988
ELEMENT_SET_NO = 999
REV_AT_EPOCH   = 225
BSTAR          = -.36119E-2
MEAN_MOTION_DOT = -.1519709E-1
MEAN_MOTION_DDOT = .67524E-3

CCSDS_OMM_VERS = 2.0
CREATION_DATE  = 
ORIGINATOR     = 

OBJECT_NAME    = STARLINK-36957
OBJECT_ID      = 2026-039D
CENTER_NAME    = EARTH
REF_FRAME      = TEME
TIME_SYSTEM    = UTC
MEAN_ELEMENT_THEORY = SGP/SGP4

EPOCH          = 2026-03-05T20:00:00.999360
MEAN_MOTION    = 15.95975214
ECCENTRICITY   = .000176
INCLINATION    = 42.9980
RA_OF_ASC_NODE = 78.8262
ARG_OF_PERICENTER = 264.4691
MEAN_ANOMALY   = 9.0588

EPHEMERIS_TYPE = 0
CLASSIFICATION_TYPE = U
NORAD_CAT_ID   = 67989
ELEMENT_SET_NO = 999
REV_AT_EPOCH   = 225
BSTAR          = -.35538E-2
MEAN_MOTION_DOT = -.1505973E-1
MEAN_MOTION_DDOT = .66493E-3

CCSDS_OMM_VERS = 2.0
CREATION_DATE  = 
ORIGINATOR     = 

OBJECT_NAME    = STARLINK-36951
OBJECT_ID      = 2026-039E
CENTER_NAME    = EARTH
REF_FRAME      = TEME
TIME_SYSTEM    = UTC
MEAN_ELEMENT_THEORY = SGP/SGP4

EPOCH          = 2026-03-05T14:00:01.999872
MEAN_MOTION    = 15.96823853
ECCENTRICITY   = .00018664
INCLINATION    = 42.9978
RA_OF_ASC_NODE = 80.3885
ARG_OF_PERICENTER = 269.8955
MEAN_ANOMALY   = 7.0305

EPHEMERIS_TYPE = 0
CLASSIFICATION_TYPE = U
NORAD_CAT_ID   = 67990
ELEMENT_SET_NO = 999
REV_AT_EPOCH   = 221
BSTAR          = -.33044543E-2
MEAN_MOTION_DOT = -.1467533E-1
MEAN_MOTION_DDOT = .63962601E-3

CCSDS_OMM_VERS = 2.0
CREATION_DATE  = 
ORIGINATOR     = 

OBJECT_NAME    = STARLINK-36941
OBJECT_ID      = 2026-039F
CENTER_NAME    = EARTH
REF_FRAME      = TEME
TIME_SYSTEM    = UTC
MEAN_ELEMENT_THEORY = SGP/SGP4

EPOCH          = 2026-03-05T20:00:00.999360
MEAN_MOTION    = 15.96242417
ECCENTRICITY   = .0001793
INCLINATION    = 42.9980
RA_OF_ASC_NODE = 78.8177
ARG_OF_PERICENTER = 261.2248
MEAN_ANOMALY   = 15.6565

EPHEMERIS_TYPE = 0
CLASSIFICATION_TYPE = U
NORAD_CAT_ID   = 67991
ELEMENT_SET_NO = 999
REV_AT_EPOCH   = 225
BSTAR          = -.34509E-2
MEAN_MOTION_DOT = -.148416E-1
MEAN_MOTION_DDOT = .64911E-3

CCSDS_OMM_VERS = 2.0
CREATION_DATE  = 
ORIGINATOR     = 

OBJECT_NAME    = STARLINK-36950
OBJECT_ID      = 2026-039G
CENTER_NAME    = EARTH
REF_FRAME      = TEME
TIME_SYSTEM    = UTC
MEAN_ELEMENT_THEORY = SGP/SGP4

EPOCH          = 2026-03-05T20:00:00.999360
MEAN_MOTION    = 15.96379009
ECCENTRICITY   = .0001802
INCLINATION    = 42.9980
RA_OF_ASC_NODE = 78.8131
ARG_OF_PERICENTER = 262.1936
MEAN_ANOMALY   = 16.5376

EPHEMERIS_TYPE = 0
CLASSIFICATION_TYPE = U
NORAD_CAT_ID   = 67992
ELEMENT_SET_NO = 999
REV_AT_EPOCH   = 225
BSTAR          = -.34066E-2
MEAN_MOTION_DOT = -.1476231E-1
MEAN_MOTION_DDOT = .64366E-3

CCSDS_OMM_VERS = 2.0
CREATION_DATE  = 
ORIGINATOR     = 

OBJECT_NAME    = STARLINK-36975
OBJECT_ID      = 2026-039H
CENTER_NAME    = EARTH
REF_FRAME      = TEME
TIME_SYSTEM    = UTC
MEAN_ELEMENT_THEORY = SGP/SGP4

EPOCH          = 2026-03-05T20:00:00.999360
MEAN_MOTION    = 15.96521700
ECCENTRICITY   = .0001811
INCLINATION    = 42.9980
RA_OF_ASC_NODE = 78.8087
ARG_OF_PERICENTER = 264.5479
MEAN_ANOMALY   = 15.9039

EPHEMERIS_TYPE = 0
CLASSIFICATION_TYPE = U
NORAD_CAT_ID   = 67993
ELEMENT_SET_NO = 999
REV_AT_EPOCH   = 225
BSTAR          = -.33959E-2
MEAN_MOTION_DOT = -.1483086E-1
MEAN_MOTION_DDOT = .65011E-3

