STARLINK-36879          
1 67982U 26038X   26064.83334490 -.01458696  67787-3 -25210-2 0  9994
2 67982  97.2726  74.8329 0001204  67.9475 230.0475 16.02432099  2576
STARLINK-36867          
1 67983U 26038Y   26064.83334490 -.01456325  67799-3 -24769-2 0  9993
2 67983  97.2724  74.8355 0001253  64.6081 238.9468 16.02706300  2573
STARLINK-36266          
1 67984U 26038Z   26064.83334490 -.01455040  67590-3 -24927-2 0  9992
2 67984  97.2724  74.8344 0001256  64.6923 236.3504 16.02582418  2542
STARLINK-36802          
1 67985U 26038AA  26064.83334490 -.01468006  68910-3 -24794-2 0  9998
2 67985  97.2721  74.8361 0001112  89.9319 215.9203 16.02827578  2570
STARLINK-36535          
1 67986U 26039A   26064.83334490 -.01531660  68312-3 -36955-2 0  9995
2 67986  42.9981  78.8401 0001717 262.4362   5.8886 15.95571673  2253
STARLINK-36744          
1 67987U 26039B   26064.83334490 -.01506852  66371-3 -36118-2 0  9995
2 67987  42.9981  78.8358 0001759 261.0505   8.9003 15.95688793  2252
STARLINK-36734          
1 67988U 26039C   26064.83334490 -.01519709  67524-3 -36119-2 0  9993
2 67988  42.9982  78.8307 0001816 261.8980  10.0301 15.95846287  2256
STARLINK-36957          
1 67989U 26039D   26064.83334490 -.01505973  66493-3 -35538-2 0  9990
2 67989  42.9980  78.8262 0001760 264.4691   9.0588 15.95975214  2259
STARLINK-36951          
1 67990U 26039E   26064.58335648 -.01467533  63963-3 -33045-2 0  9999
2 67990  42.9978  80.3885 0001866 269.8955   7.0305 15.96823853  2219
STARLINK-36941          
1 67991U 26039F   26064.83334490 -.01484160  64911-3 -34509-2 0  9997
2 67991  42.9980  78.8177 0001793 261.2248  15.6565 15.96242417  2257
STARLINK-36950          
1 67992U 26039G   26064.83334490 -.01476231  64366-3 -34066-2 0  9990
2 67992  42.9980  78.8131 0001802 262.1936  16.5376 15.96379009  2251
STARLINK-36975          
1 67993U 26039H   26064.83334490 -.01483086  65011-3 -33959-2 0  9995
2 67993  42.9980  78.8087 0001811 264.5479  15.9039 15.96521700  2256
